ONEWEB-0533             
1 55141U 23004B   24067.17693744 -.00000047  00000+0 -16614-3 0  9998
2 55141  87.9042 156.2208 0002140 102.4795 257.6573 13.12460792 58921
ONEWEB-0541             
1 55142U 23004C   24066.78589348  .00000747  00000+0  20720-2 0  9996
2 55142  87.9028 186.5494 0001783 110.3425 249.7895 13.11414696 56859
ONEWEB-0543             
1 55143U 23004D   24067.17840106  .00000075  00000+0  15775-3 0  9992
2 55143  87.9207 141.1583 0001963  91.5738 268.5619 13.18687230 60044
ONEWEB-0544             
1 55144U 23004E   24066.56507118  .00000012  00000+0 -22416-5 0  9992
2 55144  87.9211 141.2637 0001773 104.8368 255.2961 13.18686813 59965
ONEWEB-0560             
1 55145U 23004F   24067.16575585  .00000088  00000+0  19129-3 0  9990
2 55145  87.9214 141.0894 0001618  93.0207 267.1110 13.18687249 60055
ONEWEB-0565             
1 55146U 23004G   24067.15942803  .00000082  00000+0  17522-3 0  9990
2 55146  87.9211 141.1735 0001732 128.6197 231.5090 13.18687500 60049
ONEWEB-0567             
1 55147U 23004H   24067.15310482  .00000065  00000+0  13320-3 0  9996
2 55147  87.9212 141.1278 0001334 100.1824 259.9458 13.18683570 60048
ONEWEB-0569             
1 55148U 23004J   24067.14784617  .00000407  00000+0  10808-2 0  9998
2 55148  87.8956 125.8347 0000890  82.9278 277.1952 13.13468653 60954
